STARLINK-1360           
1 45588U 20025BK  20134.25001157  .00023222  00000-0  25879-3 0  9995
2 45588  53.0025 298.0751 0000998  60.7638  10.8961 15.62745413  3922
STARLINK-1364           
1 45589U 20025BL  20133.91667824  .00048079  00000-0  52860-3 0  9994
2 45589  53.0008 299.7079 0001042  95.5660 262.2063 15.62713990  1780
STARLINK-1365           
1 45590U 20025BM  20134.58334491 -.00027981  00000-0 -30052-3 0  9991
2 45590  53.0016 296.4677 0001151 111.3648  31.6459 15.62776509  3989
FALCON 9 DEB            
1 45591U 20025BN  20134.44702627  .00756151  11681-4  42813-3 0  9992
2 45591  53.0041 293.6119 0058588 127.6147 233.0227 16.14247705  3315
FALCON 9 DEB            
1 45592U 20025BP  20134.43943169  .00762432  11696-4  43040-3 0  9998
2 45592  53.0016 293.5559 0054687 125.7711 234.8427 16.14790946  3318
FALCON 9 DEB            
1 45593U 20025BQ  20134.42422110  .00847542  11733-4  44044-3 0  9999
2 45593  53.0030 293.4472 0050728 124.5164 236.0677 16.16299319  3310
FALCON 9 DEB            
1 45594U 20025BR  20134.42677532  .00633521  11713-4  35034-3 0  9997
2 45594  53.0047 293.4602 0052743 123.3276 237.2826 16.15302866  3314
PROGRESS-MS 14          
1 45595U 20026A   20133.50798690  .00000706  00000-0  20713-4 0  9991
2 45595  51.6437 165.0606 0001064 285.2989 222.5071 15.49364804226489
G-SAT                   
1 45597U 98067RK  20134.11850045  .00002982  00000-0  59718-4 0  9999
2 45597  51.6414 161.9526 0004945 295.8113  64.2365 15.50249714  2381
QUETZAL-1               
1 45598U 98067RL  20134.05720498  .00003659  00000-0  72208-4 0  9992
2 45598  51.6410 162.2932 0003012 327.6770  32.4034 15.49935607  2303
2020-028A               
1 45602U 20028A   20134.56341883  .00012160  00000-0  96367-3 0  9991
2 45602  97.5530 165.6427 0011496 258.3869 101.6029 15.00648224   237
2020-028B               
1 45603U 20028B   20134.49660026  .00011714  00000-0  92517-3 0  9994
2 45603  97.5540 165.5777 0010902 261.3822  98.6158 15.00794673   216
KZ-1A R/B               
1 45604U 20028C   20134.37765748  .00881043  19884-5  56269-3 0  9998
2 45604  97.5632 165.3017 0567487   1.3383  91.8853 15.03828183   183
